#aV2020  4 11  0  0  0.00000000     288 DD+AD WGS84 FIT  NGA
## 2100 518400.00000000   300.00000000 58950 0.0000000000000
+   32     1  2  3  4  5  6  7  8  9 10 11 12 13 14 15 16 17
+         18 19 20 21 22 23 24 25 26 27 28 29 30 31 32  0  0
+          0  0  0  0  0  0  0  0  0  0  0  0  0  0  0  0  0
+          0  0  0  0  0  0  0  0  0  0  0  0  0  0  0  0  0
+          0  0  0  0  0  0  0  0  0  0  0  0  0  0  0  0  0
++         2  2  2  2  2  2  2  2  2  2  2  2  2  2  2  2  2
++         2  2  2  2  2  2  2  2  2  2  2  2  2  2  2  0  0
++         0  0  0  0  0  0  0  0  0  0  0  0  0  0  0  0  0
++         0  0  0  0  0  0  0  0  0  0  0  0  0  0  0  0  0
++         0  0  0  0  0  0  0  0  0  0  0  0  0  0  0  0  0
%c cc cc ccc ccc cccc cccc cccc cccc ccccc ccccc ccccc ccccc
%c cc cc ccc ccc cccc cccc cccc cccc ccccc ccccc ccccc ccccc
%f  0.0000000  0.000000000  0.00000000000  0.000000000000000
%f  0.0000000  0.000000000  0.00000000000  0.000000000000000
%i    0    0    0    0      0      0      0      0         0
%i    0    0    0    0      0      0      0      0         0
/*      NGA, ST. LOUIS,MO.                                  
/*   EPHEMERIS COMPUTED FROM 2 DAYS OF DATA                 
/*   EPOCHA v5 SMOOTHER                                     
/*   G1762 IERS2010 SATAF SATAPC                            
*  2020  4 11  0 55  0.00000000
P  1  21365.995272  15055.683398  -5853.901329   -354.134442                    
V  1  -7149.290035  -1518.919614 -30809.958397     -0.107958                    
P  2  -2093.994560 -16843.691794  21086.101719   -437.358180                    
V  2  23721.882608   8881.948943   9688.220061     -0.064770                    
P  3  12666.888660  16346.068822  16666.336733   -142.237000                    
V  3   -272.525938  21287.512861 -20502.799509     -0.108315                    
P  4  16667.174150   5940.272785  19827.419732    -74.497136                    
V  4 -20709.772575  14310.899245  13100.255009     -0.051545                    
P  5  -1812.183386 -26360.991387   1092.497952    -10.642974                    
V  5   3416.892868   1227.663365  31642.551754     -0.006600                    
P  6   9573.807655 -11695.589696  21899.590547   -250.131647                    
V  6  24691.656077  12366.886063  -4156.089819     -0.077815                    
P  7  24239.184077   3967.845660 -10406.792726   -255.870793                    
V  7  10980.039363   8209.162278  27430.523805     -0.086174                    
P  8   6313.786116  13778.426659 -21774.198586    -30.206819                    
V  8 -22969.413158  15461.604304   3369.087549     -0.013041                    
P  9  22660.081138  -4371.614464  13114.192887   -195.253266                    
V  9 -12368.345412  11549.521960  25105.418000     -0.077787                    
P 10 -11963.122649  14383.884619 -18673.197714   -306.315738                    
V 10  -3201.101649 -23798.463463 -16433.041440     -0.121275                    
P 11  14708.828320  13619.222770 -17775.258962   -308.703012                    
V 11 -21882.889401   2595.784842 -16888.401714      0.107582                    
P 12 -10408.118957 -18749.902696  15543.711161    130.649207                    
V 12   1612.513749 -20057.783488 -22609.555226     -0.043206                    
P 13   2829.220805 -17022.223962 -20286.185889      1.135418                    
V 13  23247.930191 -10515.428100  12222.464405      0.030268                    
P 14 -15798.335254  18070.067815  11504.288478    -20.400120                    
V 14 -13548.888089   4783.761489 -27105.639190      0.024688                    
P 15  -8900.717541 -13430.910133 -21405.932050   -238.832438                    
V 15  20721.761680 -16709.910742   2278.235938      0.026081                    
P 16   -335.997617  26309.544091   -343.835204   -145.190420                    
V 16  -2634.992086    124.038666  32447.388794     -0.043831                    
P 17  21801.725558 -14954.278719   2676.485967    246.747555                    
V 17   3529.728318    317.831751 -32064.304993      0.061735                    
P 18 -24560.302401  -7126.563715  -7251.317076    151.892497                    
V 18  -6963.107578  -6521.405862  29980.325776      0.137231                    
P 19  18148.994977 -16766.771003   9436.060716   -173.733388                    
V 19  11877.978700  -4041.956360 -29118.683397      0.051167                    
P 20 -15659.405260   2510.235129 -21387.766834    527.820762                    
V 20  -5374.356935 -26540.480964    609.205378     -0.000323                    
P 21 -23940.296420  -1973.465848 -10235.397776    -15.831024                    
V 21 -12007.460545  -8311.735667  27867.363195      0.050197                    
P 22  10616.780868  22584.648481   9495.403364   -784.891351                    
V 22  -1434.515363  12120.015749 -27746.503945      0.005202                    
P 23  19979.462893   1857.753675  17991.234752   -123.058450                    
V 23 -17072.105891  13938.717598  17490.226054      0.029546                    
P 24 -20865.399174 -14922.320622  -7773.352184    -11.525300                    
V 24   9963.436810    922.400978 -28891.005295     -0.004887                    
P 25 -14734.669749  -7701.246767  20534.181310     -3.937547                    
V 25   -963.178458 -26532.444275 -10256.372870      0.024212                    
P 26  -5436.247511  23520.058246  10784.257058    185.113012                    
V 26  -4369.157132 -13480.713800  27331.391156      0.073863                    
P 27  -5051.420398  18382.582655 -18478.940219   -263.474720                    
V 27 -20083.839771  11834.901817  17717.262170     -0.105136                    
P 28  12079.150964 -15520.877011 -17335.085537    726.308472                    
V 28    879.527697  23112.836719 -19295.539033     -0.029728                    
P 29 -21785.253751    975.624495  15134.287342    -78.091877                    
V 29  15934.821250 -10869.748327  23556.385511     -0.091660                    
P 30  18397.165603  -5447.428937 -18416.483261   -195.626637                    
V 30  19887.371515  12548.680419  15917.120112     -0.085323                    
P 31  -8412.956923  12792.780426  21677.272690    -35.226182                    
V 31 -24475.542571 -12784.857637  -1502.879653     -0.024510                    
P 32 -20642.162509  16377.550177   2713.754616    256.878643                    
V 32  -4493.383366   -611.375724 -31518.024744      0.084880                    
EOF
